#aV2010  4 22  0  0   .00000000      96 DD+AD WGS84 FIT  NGA
## 1580 345600.00000000   900.00000000 55308  .0000000000000
+   31     1  2  3  4  5  6  7  8  9 10 11 12 13 14 15 16 17
+         18 19 20 21 22 23 24 26 27 28 29 30 31 32  0  0  0
+          0  0  0  0  0  0  0  0  0  0  0  0  0  0  0  0  0
+          0  0  0  0  0  0  0  0  0  0  0  0  0  0  0  0  0
+          0  0  0  0  0  0  0  0  0  0  0  0  0  0  0  0  0
++         0  0  0  0  0  0  0  0  0  0  0  0  0  0  0  0  0
++         0  0  0  0  0  0  0  0  0  0  0  0  0  0  0  0  0
++         0  0  0  0  0  0  0  0  0  0  0  0  0  0  0  0  0
++         0  0  0  0  0  0  0  0  0  0  0  0  0  0  0  0  0
++         0  0  0  0  0  0  0  0  0  0  0  0  0  0  0  0  0
%c cc cc ccc ccc cccc cccc cccc cccc ccccc ccccc ccccc ccccc
%c cc cc ccc ccc cccc cccc cccc cccc ccccc ccccc ccccc ccccc
%f  0.0000000  0.000000000  0.00000000000  0.000000000000000
%f  0.0000000  0.000000000  0.00000000000  0.000000000000000
%i    0    0    0    0      0      0      0      0         0
%i    0    0    0    0      0      0      0      0         0
/*      NGA, ST. LOUIS,MO.                                  
/*   EPHEMERIS COMPUTED FROM  3 DAYS OF DATA                
/* CCCCCCCCCCCCCCCCCCCCCCCCCCCCCCCCCCCCCCCCCCCCCCCCCCCCCCCCC
/* CCCCCCCCCCCCCCCCCCCCCCCCCCCCCCCCCCCCCCCCCCCCCCCCCCCCCCCCC
*  2010  4 22  2  0   .00000000                                                 
P  1  23552.854514  12385.442286  -1578.355355   -111.904161                    
V  1  -2780.023603   1523.225665 -31644.709314      -.040499                    
P  2 -22366.493269  13652.574942  -2389.491547    248.718698                    
V  2    273.252421  -4895.340717 -31394.299233       .036236                    
P  3  11855.739166 -13609.527603  19017.549181    545.064390                    
V  3   6762.226733  24296.160212  13273.043587       .049045                    
P  4 -22173.053982   1864.163978 -14934.363493     65.340116                    
V  4  14117.999875 -12288.347759 -22393.799214       .085207                    
P  5 -17779.872191   6123.128800  18770.262296     -1.912677                    
V  5 -20924.903488 -11538.183852 -15955.833120      -.001485                    
P  6  14220.131311  -9154.889669  20634.982903    660.386188                    
V  6   4276.167156  25588.080721   8619.169748      -.098451                    
P  7  -6307.018987 -13733.619477  21820.958099       .259765                    
V  7  23102.608711 -15304.667550  -3111.049823      -.003594                    
P  8 -17446.789377  -4645.540972  19650.180910      5.025506                    
V  8  21059.836868 -12982.517294  15107.127937       .002491                    
P  9 -12646.394692  19814.565212 -12857.076571      2.235122                    
V  9 -13483.123129   7715.722444  26311.819273       .021330                    
P 10 -23247.624125  -1580.833106  12873.534466    -40.876904                    
V 10 -13711.358851  -9507.485914 -25218.457036      -.008438                    
P 11   5522.063754 -22222.693545 -13419.293848    -57.969364                    
V 11  14423.891873  -9843.625862  23044.145488      -.022725                    
P 12    194.582589  16163.881121 -21050.333213   -123.922070                    
V 12 -24317.752520 -11260.115493  -8700.660655       .044185                    
P 13  -4811.149544 -25085.725386   7098.369540    305.121346                    
V 13   1673.063007  -9190.705659 -30764.316133      -.002905                    
P 14  13709.970842  10129.076006 -20269.912022     36.786176                    
V 14    -14.783358  25946.528735  12749.157927       .045782                    
P 15  -7721.548788  21411.178856  13607.768428   -283.535050                    
V 15  -4019.483155 -17019.217143  24638.729551       .050520                    
P 16  21805.770418   -618.459289  15389.547169    -63.960218                    
V 16  16466.453621  10234.880278 -22719.216291      -.038309                    
P 17 -14342.223053 -10578.882939 -19657.098694    145.876385                    
V 17   -203.708365 -25144.858684  13404.340354       .025863                    
P 18  17081.681661  17639.269404  10854.787017     63.406627                    
V 18 -13091.812948  -3626.192662  26779.615487       .024512                    
P 19   8790.825466 -21618.933138  12426.198840    -29.715085                    
V 19   2569.642713  15850.721461  26129.879425      -.025834                    
P 20  -3229.702729 -17431.014768 -19930.227032     57.337679                    
V 20  23443.363820   8992.075909 -11692.249863      -.006073                    
P 21  11425.338438  11473.878297  21427.199793    -55.073140                    
V 21 -22032.051621  14747.585127   3276.151334      -.025353                    
P 22  23715.929084  12059.635680   -204.394721    173.889859                    
V 22  -1227.374629   3356.654570  31124.070839      -.009359                    
P 23   -224.802095 -26296.079597  -2239.072431    373.446016                    
V 23   3025.875632   2634.494744 -31952.613926      -.012508                    
P 24  14315.395919   8614.716674  20697.591139    281.074424                    
V 24 -21791.883420  14501.190961   9315.999383       .032271                    
P 26   1199.945850  26260.940094  -1408.537092    -42.326543                    
V 26  -2221.071834   1164.965414  32648.104662      -.046536                    
P 27 -15539.885828  19272.253725  -8729.609789    145.198852                    
V 27 -11022.440563   5465.162010  29545.370491       .034199                    
P 28 -22758.395435 -13849.275720   2500.227375    -17.985920                    
V 28   3319.231086   -803.260438  31557.352956       .008326                    
P 29   5409.157817  25321.930846   6106.965147    114.406333                    
V 29  -2333.297373   7736.042667 -30446.296967       .028017                    
P 30  11595.667849  17660.015084 -16523.629016    235.829276                    
V 30 -19327.179299  -6293.798026 -20730.774898       .033926                    
P 31  22560.692096  -4547.648354 -13202.421430    -40.859514                    
V 31 -13068.793031  11038.742904 -25555.578950       .021212                    
P 32   6742.386242 -13523.634675 -21507.989387     46.156616                    
V 32  24201.639353  14333.458381  -1077.713310      -.084968                    
EOF
